start=new Date('2022-06-24T00:00:00.000Z').valueOf();
sats=[{"TIME_SYSTEM":"UTC","ECCENTRICITY":"0.00017530","NORAD_CAT_ID":"52602","SEMIMAJOR_AXIS":"6815.187","REF_FRAME":"TEME","FILE":"3500539","BSTAR":"-0.01739600000000","REV_AT_EPOCH":"130","CLASSIFICATION_TYPE":"U","COUNTRY_CODE":"US","PERIAPSIS":"435.857","MEAN_MOTION_DDOT":"0.0000000000000","APOAPSIS":"438.247","MEAN_ANOMALY":"346.8619","OBJECT_TYPE":"PAYLOAD","MEAN_MOTION_DOT":"-0.00721740","MEAN_ELEMENT_THEORY":"SGP4","RCS_SIZE":"LARGE","EPOCH":"2022-06-23T14:00:01.000224","INCLINATION":"53.2177","PERIOD":"93.320","RA_OF_ASC_NODE":"245.1233","TLE_LINE2":"2 52602  53.2177 245.1233 0001753  36.6680 346.8619 15.43071678  1300","DECAY_DATE":null,"OBJECT_NAME":"STARLINK-4012","TLE_LINE1":"1 52602U 22052E   22174.58334491 -.00721740  00000-0 -17396-1 0  9999","GP_ID":"206688612","ARG_OF_PERICENTER":"36.6680","OBJECT_ID":"2022-052E","SITE":"AFETR","MEAN_MOTION":"15.43071678","LAUNCH_DATE":"2022-05-14","ELEMENT_SET_NO":"999","EPHEMERIS_TYPE":"0","CENTER_NAME":"EARTH"},{"ECCENTRICITY":"0.00015570","NORAD_CAT_ID":"52603","SEMIMAJOR_AXIS":"6813.989","REF_FRAME":"TEME","TIME_SYSTEM":"UTC","CLASSIFICATION_TYPE":"U","COUNTRY_CODE":"US","FILE":"3500565","REV_AT_EPOCH":"665","BSTAR":"-0.01717800000000","MEAN_ANOMALY":"310.2391","OBJECT_TYPE":"PAYLOAD","APOAPSIS":"436.915","MEAN_MOTION_DDOT":"0.0000000000000","PERIAPSIS":"434.793","MEAN_MOTION_DOT":"-0.00722511","PERIOD":"93.296","INCLINATION":"53.2174","RA_OF_ASC_NODE":"243.9809","MEAN_ELEMENT_THEORY":"SGP4","RCS_SIZE":"LARGE","EPOCH":"2022-06-23T20:00:01.000224","DECAY_DATE":null,"TLE_LINE1":"1 52603U 22052F   22174.83334491 -.00722511  00000-0 -17178-1 0  9993","OBJECT_NAME":"STARLINK-4016","TLE_LINE2":"2 52603  53.2174 243.9809 0001557  39.0553 310.2391 15.43478557  6653","LAUNCH_DATE":"2022-05-14","EPHEMERIS_TYPE":"0","CENTER_NAME":"EARTH","ELEMENT_SET_NO":"999","GP_ID":"206688757","OBJECT_ID":"2022-052F","ARG_OF_PERICENTER":"39.0553","MEAN_MOTION":"15.43478557","SITE":"AFETR"},{"FILE":"3500539","BSTAR":"-0.01714800000000","REV_AT_EPOCH":"130","CLASSIFICATION_TYPE":"U","COUNTRY_CODE":"US","MEAN_MOTION_DDOT":"0.0000000000000","PERIAPSIS":"434.565","APOAPSIS":"437.207","OBJECT_TYPE":"PAYLOAD","MEAN_ANOMALY":"3.1508","TIME_SYSTEM":"UTC","NORAD_CAT_ID":"52604","ECCENTRICITY":"0.00019380","SEMIMAJOR_AXIS":"6814.021","REF_FRAME":"TEME","TLE_LINE2":"2 52604  53.2177 245.1447 0001938  28.2445   3.1508 15.43467748  1307","DECAY_DATE":null,"OBJECT_NAME":"STARLINK-4013","TLE_LINE1":"1 52604U 22052G   22174.58334491 -.00721156  00000-0 -17148-1 0  9997","GP_ID":"206688083","OBJECT_ID":"2022-052G","ARG_OF_PERICENTER":"28.2445","MEAN_MOTION":"15.43467748","SITE":"AFETR","LAUNCH_DATE":"2022-05-14","ELEMENT_SET_NO":"999","EPHEMERIS_TYPE":"0","CENTER_NAME":"EARTH","MEAN_MOTION_DOT":"-0.00721156","MEAN_ELEMENT_THEORY":"SGP4","RCS_SIZE":"LARGE","EPOCH":"2022-06-23T14:00:01.000224","INCLINATION":"53.2177","PERIOD":"93.296","RA_OF_ASC_NODE":"245.1447"},{"MEAN_MOTION_DDOT":"0.0000000000000","PERIAPSIS":"496.204","APOAPSIS":"498.284","OBJECT_TYPE":"PAYLOAD","MEAN_ANOMALY":"288.7193","BSTAR":"-0.03840000000000","REV_AT_EPOCH":"130","FILE":"3500539","COUNTRY_CODE":"US","CLASSIFICATION_TYPE":"U","TIME_SYSTEM":"UTC","REF_FRAME":"TEME","SEMIMAJOR_AXIS":"6875.379","NORAD_CAT_ID":"52605","ECCENTRICITY":"0.00015130","MEAN_MOTION":"15.22852357","SITE":"AFETR","ARG_OF_PERICENTER":"49.8945","GP_ID":"206687977","OBJECT_ID":"2022-052H","ELEMENT_SET_NO":"999","CENTER_NAME":"EARTH","EPHEMERIS_TYPE":"0","LAUNCH_DATE":"2022-05-14","TLE_LINE2":"2 52605  53.2176 247.8677 0001513  49.8945 288.7193 15.22852357  1306","OBJECT_NAME":"STARLINK-4000","TLE_LINE1":"1 52605U 22052H   22174.58334491 -.00839344  00000-0 -38400-1 0  9991","DECAY_DATE":null,"EPOCH":"2022-06-23T14:00:01.000224","RCS_SIZE":"LARGE","MEAN_ELEMENT_THEORY":"SGP4","RA_OF_ASC_NODE":"247.8677","INCLINATION":"53.2176","PERIOD":"94.559","MEAN_MOTION_DOT":"-0.00839344"},{"COUNTRY_CODE":"US","CLASSIFICATION_TYPE":"U","BSTAR":"-0.01703300000000","REV_AT_EPOCH":"130","FILE":"3500539","MEAN_ANOMALY":"4.7890","OBJECT_TYPE":"PAYLOAD","PERIAPSIS":"434.038","MEAN_MOTION_DDOT":"0.0000000000000","APOAPSIS":"436.567","REF_FRAME":"TEME","SEMIMAJOR_AXIS":"6813.438","NORAD_CAT_ID":"52606","ECCENTRICITY":"0.00018560","TIME_SYSTEM":"UTC","OBJECT_NAME":"STARLINK-3928","TLE_LINE1":"1 52606U 22052J   22174.58334491 -.00721151  00000-0 -17033-1 0  9997","DECAY_DATE":null,"TLE_LINE2":"2 52606  53.2177 245.1553 0001856  30.4003   4.7890 15.43665958  1305","ELEMENT_SET_NO":"999","EPHEMERIS_TYPE":"0","CENTER_NAME":"EARTH","LAUNCH_DATE":"2022-05-14","SITE":"AFETR","MEAN_MOTION":"15.43665958","OBJECT_ID":"2022-052J","GP_ID":"206688537","ARG_OF_PERICENTER":"30.4003","MEAN_MOTION_DOT":"-0.00721151","RA_OF_ASC_NODE":"245.1553","INCLINATION":"53.2177","PERIOD":"93.284","RCS_SIZE":"LARGE","EPOCH":"2022-06-23T14:00:01.000224","MEAN_ELEMENT_THEORY":"SGP4"},{"ECCENTRICITY":"0.00016300","NORAD_CAT_ID":"52607","REF_FRAME":"TEME","SEMIMAJOR_AXIS":"6873.995","TIME_SYSTEM":"UTC","MEAN_ANOMALY":"324.3259","OBJECT_TYPE":"PAYLOAD","APOAPSIS":"496.981","MEAN_MOTION_DDOT":"0.0000000000000","PERIAPSIS":"494.740","CLASSIFICATION_TYPE":"U","COUNTRY_CODE":"US","FILE":"3500539","REV_AT_EPOCH":"130","BSTAR":"-0.03792500000000","PERIOD":"94.531","INCLINATION":"53.2176","RA_OF_ASC_NODE":"247.8784","MEAN_ELEMENT_THEORY":"SGP4","RCS_SIZE":"LARGE","EPOCH":"2022-06-23T14:00:01.000224","MEAN_MOTION_DOT":"-0.00840346","LAUNCH_DATE":"2022-05-14","CENTER_NAME":"EARTH","EPHEMERIS_TYPE":"0","ELEMENT_SET_NO":"999","OBJECT_ID":"2022-052K","GP_ID":"206688218","ARG_OF_PERICENTER":"41.1266","MEAN_MOTION":"15.23312161","SITE":"AFETR","DECAY_DATE":null,"TLE_LINE1":"1 52607U 22052K   22174.58334491 -.00840346  00000-0 -37925-1 0  9998","OBJECT_NAME":"STARLINK-3947","TLE_LINE2":"2 52607  53.2176 247.8784 0001630  41.1266 324.3259 15.23312161  1303"},{"LAUNCH_DATE":"2022-05-14","EPHEMERIS_TYPE":"0","CENTER_NAME":"EARTH","ELEMENT_SET_NO":"999","GP_ID":"206688430","OBJECT_ID":"2022-052L","ARG_OF_PERICENTER":"36.2143","MEAN_MOTION":"15.44054538","SITE":"AFETR","DECAY_DATE":null,"TLE_LINE1":"1 52608U 22052L   22174.58334491 -.00721164  00000-0 -16810-1 0  9995","OBJECT_NAME":"STARLINK-3979","TLE_LINE2":"2 52608  53.2177 245.1751 0001676  36.2143   6.9378 15.44054538  1308","PERIOD":"93.261","INCLINATION":"53.2177","RA_OF_ASC_NODE":"245.1751","MEAN_ELEMENT_THEORY":"SGP4","RCS_SIZE":"LARGE","EPOCH":"2022-06-23T14:00:01.000224","MEAN_MOTION_DOT":"-0.00721164","OBJECT_TYPE":"PAYLOAD","MEAN_ANOMALY":"6.9378","APOAPSIS":"435.301","MEAN_MOTION_DDOT":"0.0000000000000","PERIAPSIS":"433.018","CLASSIFICATION_TYPE":"U","COUNTRY_CODE":"US","FILE":"3500539","REV_AT_EPOCH":"130","BSTAR":"-0.01681000000000","ECCENTRICITY":"0.00016760","NORAD_CAT_ID":"52608","SEMIMAJOR_AXIS":"6812.295","REF_FRAME":"TEME","TIME_SYSTEM":"UTC"},{"GP_ID":"206688324","OBJECT_ID":"2022-052M","ARG_OF_PERICENTER":"32.8616","SITE":"AFETR","MEAN_MOTION":"15.44389185","LAUNCH_DATE":"2022-05-14","ELEMENT_SET_NO":"999","EPHEMERIS_TYPE":"0","CENTER_NAME":"EARTH","TLE_LINE2":"2 52609  53.2177 245.1912 0001768  32.8616  17.2046 15.44389185  1303","DECAY_DATE":null,"OBJECT_NAME":"STARLINK-3997","TLE_LINE1":"1 52609U 22052M   22174.58334491 -.00720980  00000-0 -16614-1 0  9993","MEAN_ELEMENT_THEORY":"SGP4","EPOCH":"2022-06-23T14:00:01.000224","RCS_SIZE":"LARGE","INCLINATION":"53.2177","PERIOD":"93.241","RA_OF_ASC_NODE":"245.1912","MEAN_MOTION_DOT":"-0.00720980","MEAN_MOTION_DDOT":"0.0000000000000","PERIAPSIS":"431.971","APOAPSIS":"434.380","MEAN_ANOMALY":"17.2046","OBJECT_TYPE":"PAYLOAD","FILE":"3500539","BSTAR":"-0.01661400000000","REV_AT_EPOCH":"130","CLASSIFICATION_TYPE":"U","COUNTRY_CODE":"US","TIME_SYSTEM":"UTC","NORAD_CAT_ID":"52609","ECCENTRICITY":"0.00017680","SEMIMAJOR_AXIS":"6811.310","REF_FRAME":"TEME"},{"NORAD_CAT_ID":"52610","ECCENTRICITY":"0.00016820","REF_FRAME":"TEME","SEMIMAJOR_AXIS":"6874.694","TIME_SYSTEM":"UTC","OBJECT_TYPE":"PAYLOAD","MEAN_ANOMALY":"312.1745","APOAPSIS":"497.715","PERIAPSIS":"495.403","MEAN_MOTION_DDOT":"0.0000000000000","CLASSIFICATION_TYPE":"U","COUNTRY_CODE":"US","FILE":"3500539","REV_AT_EPOCH":"130","BSTAR":"-0.03816700000000","PERIOD":"94.545","INCLINATION":"53.2176","RA_OF_ASC_NODE":"247.8730","MEAN_ELEMENT_THEORY":"SGP4","EPOCH":"2022-06-23T14:00:01.000224","RCS_SIZE":"MEDIUM","MEAN_MOTION_DOT":"-0.00839912","LAUNCH_DATE":"2022-05-14","EPHEMERIS_TYPE":"0","CENTER_NAME":"EARTH","ELEMENT_SET_NO":"999","OBJECT_ID":"2022-052N","GP_ID":"206688613","ARG_OF_PERICENTER":"39.9776","MEAN_MOTION":"15.23080001","SITE":"AFETR","DECAY_DATE":null,"TLE_LINE1":"1 52610U 22052N   22174.58334491 -.00839912  00000-0 -38167-1 0  9998","OBJECT_NAME":"STARLINK-3998","TLE_LINE2":"2 52610  53.2176 247.8730 0001682  39.9776 312.1745 15.23080001  1306"},{"FILE":"3500539","BSTAR":"-0.03768600000000","REV_AT_EPOCH":"130","CLASSIFICATION_TYPE":"U","COUNTRY_CODE":"US","MEAN_MOTION_DDOT":"0.0000000000000","PERIAPSIS":"494.050","APOAPSIS":"496.330","MEAN_ANOMALY":"338.6326","OBJECT_TYPE":"PAYLOAD","TIME_SYSTEM":"UTC","NORAD_CAT_ID":"52611","ECCENTRICITY":"0.00016590","SEMIMAJOR_AXIS":"6873.325","REF_FRAME":"TEME","TLE_LINE2":"2 52611  53.2176 247.8832 0001659  40.2843 338.6326 15.23535017  1304","DECAY_DATE":null,"OBJECT_NAME":"STARLINK-3980","TLE_LINE1":"1 52611U 22052P   22174.58334491 -.00840613  00000-0 -37686-1 0  9994","GP_ID":"206687872","ARG_OF_PERICENTER":"40.2843","OBJECT_ID":"2022-052P","SITE":"AFETR","MEAN_MOTION":"15.23535017","LAUNCH_DATE":"2022-05-14","ELEMENT_SET_NO":"999","EPHEMERIS_TYPE":"0","CENTER_NAME":"EARTH","MEAN_MOTION_DOT":"-0.00840613","MEAN_ELEMENT_THEORY":"SGP4","RCS_SIZE":"LARGE","EPOCH":"2022-06-23T14:00:01.000224","INCLINATION":"53.2176","PERIOD":"94.517","RA_OF_ASC_NODE":"247.8832"}];
